[{"OBJECT_NAME":"STARLINK-30431","OBJECT_ID":"2023-141N","EPOCH":"2026-03-09T19:50:30.555456","MEAN_MOTION":15.30189985,"ECCENTRICITY":9.658e-5,"INCLINATION":53.1592,"RA_OF_ASC_NODE":283.1577,"ARG_OF_PERICENTER":110.9615,"MEAN_ANOMALY":249.1489,"EPHEMERIS_TYPE":0,"CLASSIFICATION_TYPE":"U","NORAD_CAT_ID":57852,"ELEMENT_SET_NO":999,"REV_AT_EPOCH":14034,"BSTAR":1.9283306e-5,"MEAN_MOTION_DOT":2.12e-6,"MEAN_MOTION_DDOT":0},{"OBJECT_NAME":"BREEZE-M DEB [TANK]","OBJECT_ID":"2012-036C","EPOCH":"2026-03-09T12:19:03.141120","MEAN_MOTION":5.53696801,"ECCENTRICITY":0.50446024,"INCLINATION":49.5852,"RA_OF_ASC_NODE":185.8036,"ARG_OF_PERICENTER":132.9113,"MEAN_ANOMALY":282.3461,"EPHEMERIS_TYPE":0,"CLASSIFICATION_TYPE":"U","NORAD_CAT_ID":38654,"ELEMENT_SET_NO":999,"REV_AT_EPOCH":26624,"BSTAR":0.0014454822,"MEAN_MOTION_DOT":7.766e-5,"MEAN_MOTION_DDOT":0}]
